KUIPER-00167            
1 65780U 25217U   25334.91670139  .00039615  00000+0  24949-2 0  9999
2 65780  51.8808 124.6837 0011787 304.4709 359.3293 15.08735737  4329
KUIPER-00168            
1 65781U 25217V   25334.79210839  .00006295  00000+0  17159-3 0  9997
2 65781  51.8709 121.6785 0001878 213.1562 146.9308 15.38793104 10219
KUIPER-00169            
1 65782U 25217W   25333.84739198  .00048645  00000+0  12673-2 0  9997
2 65782  51.8697 126.5879 0003080 282.8866  77.1776 15.38382509 10061
KUIPER-00170            
1 65783U 25217X   25334.91670139 -.00739413  00000+0 -29127-1 0  9999
2 65783  51.8700 122.2630 0007255 317.4066 151.5454 15.27403237  5693
KUIPER-00171            
1 65784U 25217Y   25334.88190715  .00232772  00000+0  20659-2 0  9999
2 65784  51.8571 116.3050 0009217 320.7675  39.2656 15.67238178 10295
KUIPER-00172            
1 65785U 25217Z   25334.80495111  .00054988  00000+0  14205-2 0  9991
2 65785  51.8712 121.7605 0003481 291.3579  68.7037 15.38586370 10212
KUIPER-00173            
1 65786U 25217AA  25334.91670139 -.00430999  00000+0 -12506-1 0  9992
2 65786  51.8695 121.3368 0003049 265.6437 290.9093 15.36712319  5264
KUIPER-00174            
1 65787U 25217AB  25334.14989930  .00078958  00000+0  20619-2 0  9996
2 65787  51.8700 124.8704 0002624 224.2105 135.8673 15.38091958 10117
